NORAD_CAT_ID,OBJECT_NAME,OBJECT_TYPE,EPOCH,MEAN_MOTION,ECCENTRICITY,INCLINATION,RA_OF_ASC_NODE,ARG_OF_PERICENTER,MEAN_ANOMALY,BSTAR,MEAN_MOTION_DOT,MEAN_MOTION_DDOT,TLE_LINE0,TLE_LINE1,TLE_LINE2,SEMIMAJOR_AXIS,PERIOD,APOGEE,PERIGEE,DECAYED
55772.0,STARLINK-5835,PAYLOAD,2023-12-24 11:37:21,14.98333789,0.0002733,70.0,97.0957,251.5859,108.5003,2.4597e-05,2.01e-06,0.0,0 STARLINK-5835,1 55772U 23028AH  23358.48427271  .00000201  00000-0  24597-4 0  9991,2 55772  70.0000  97.0957 0002733 251.5859 108.5003 14.98333789 45777,6950.181,96.107,573.946,570.147,0.0
55772.0,STARLINK-5835,PAYLOAD,2023-12-24 14:49:36,14.98335068,0.0002878,70.0002,96.7596,254.2081,105.8761,0.0001415,1.596e-05,0.0,0 STARLINK-5835,1 55772U 23028AH  23358.61778793  .00001596  00000-0  14150-3 0  9995,2 55772  70.0002  96.7596 0002878 254.2081 105.8761 14.98335068 45796,6950.177,96.107,574.042,570.042,0.0
55772.0,STARLINK-5835,PAYLOAD,2023-12-24 16:25:44,14.98343532,0.0003008,69.9993,96.5904,261.323,98.7588,9.9293e-05,1.092e-05,0.0,0 STARLINK-5835,1 55772U 23028AH  23358.68454380  .00001092  00000-0  99293-4 0  9998,2 55772  69.9993  96.5904 0003008 261.3230  98.7588 14.98343532 45808,6950.151,96.106,574.107,569.925,0.0
55772.0,STARLINK-5835,PAYLOAD,2023-12-25 11:39:22,14.98325444,0.0002597,70.0013,94.5734,260.774,99.3126,7.3126e-05,7.8e-06,0.0,0 STARLINK-5835,1 55772U 23028AH  23359.48567631  .00000780  00000-0  73126-4 0  9991,2 55772  70.0013  94.5734 0002597 260.7740  99.3126 14.98325444 45924,6950.207,96.107,573.877,570.267,0.0
55772.0,STARLINK-5835,PAYLOAD,2023-12-25 14:51:38,14.98329692,0.0002727,70.0003,94.2347,260.6274,99.4577,7.5418e-05,8.07e-06,0.0,0 STARLINK-5835,1 55772U 23028AH  23359.61919290  .00000807  00000-0  75418-4 0  9994,2 55772  70.0003  94.2347 0002727 260.6274  99.4577 14.98329692 45948,6950.194,96.107,573.954,570.164,0.0
55772.0,STARLINK-5835,PAYLOAD,2023-12-25 16:27:46,14.98332679,0.0002929,69.9998,94.0662,267.9902,92.0921,9.0748e-05,9.9e-06,0.0,0 STARLINK-5835,1 55772U 23028AH  23359.68595071  .00000990  00000-0  90748-4 0  9994,2 55772  69.9998  94.0662 0002929 267.9902  92.0921 14.98332679 45950,6950.185,96.107,574.085,570.014,0.0
55772.0,STARLINK-5835,PAYLOAD,2023-12-26 13:17:31,14.98329084,0.0002684,70.0005,91.879,259.1117,100.974,-8.8207e-05,-1.145e-05,0.0,0 STARLINK-5835,1 55772U 23028AH  23360.55383709 -.00001145  00000-0 -88207-4 0  9997,2 55772  70.0005  91.8790 0002684 259.1117 100.9740 14.98329084 46087,6950.196,96.107,573.926,570.195,0.0
55772.0,STARLINK-5835,PAYLOAD,2023-12-26 16:29:47,14.98330071,0.0002662,70.0005,91.5425,258.0056,102.0804,-8.908e-05,-1.156e-05,0.0,0 STARLINK-5835,1 55772U 23028AH  23360.68735646 -.00001156  00000-0 -89080-4 0  9994,2 55772  70.0005  91.5425 0002662 258.0056 102.0804 14.98330071 46100,6950.193,96.107,573.908,570.208,0.0
55772.0,STARLINK-5835,PAYLOAD,2023-12-27 13:19:31,14.98333546,0.0002777,70.0,89.3533,266.3506,93.7335,5.8645e-05,6.07e-06,0.0,0 STARLINK-5835,1 55772U 23028AH  23361.55522983  .00000607  00000-0  58645-4 0  9990,2 55772  70.0000  89.3533 0002777 266.3506  93.7335 14.98333546 46238,6950.182,96.107,573.977,570.117,0.0
55772.0,STARLINK-5835,PAYLOAD,2023-12-27 16:31:47,14.9833508,0.000274,70.0003,89.0176,264.5716,95.513,7.533e-05,8.06e-06,0.0,0 STARLINK-5835,1 55772U 23028AH  23361.68874795  .00000806  00000-0  75330-4 0  9996,2 55772  70.0003  89.0176 0002740 264.5716  95.5130 14.98335080 46254,6950.177,96.107,573.947,570.138,0.0
55772.0,STARLINK-5835,PAYLOAD,2023-12-28 11:45:25,14.98323413,0.0002543,70.0006,86.9959,257.2159,102.8716,2.8901e-05,2.52e-06,0.0,0 STARLINK-5835,1 55772U 23028AH  23362.48987624  .00000252  00000-0  28901-4 0  9998,2 55772  70.0006  86.9959 0002543 257.2159 102.8716 14.98323413 46375,6950.213,96.107,573.846,570.311,0.0
55772.0,STARLINK-5835,PAYLOAD,2023-12-28 13:21:33,14.98322378,0.0002539,70.0006,86.8278,262.7074,97.3797,3.0467e-05,2.71e-06,0.0,0 STARLINK-5835,1 55772U 23028AH  23362.55663731  .00000271  00000-0  30467-4 0  9997,2 55772  70.0006  86.8278 0002539 262.7074  97.3797 14.98322378 46387,6950.216,96.107,573.846,570.317,0.0
55772.0,STARLINK-5835,PAYLOAD,2023-12-28 14:57:41,14.98322541,0.0002555,70.0006,86.6595,264.1751,95.9117,3.0036e-05,2.65e-06,0.0,0 STARLINK-5835,1 55772U 23028AH  23362.62339759  .00000265  00000-0  30036-4 0  9990,2 55772  70.0006  86.6595 0002555 264.1751  95.9117 14.98322541 46396,6950.216,96.107,573.857,570.305,0.0
55772.0,STARLINK-5835,PAYLOAD,2023-12-29 11:47:26,14.98329238,0.0002757,70.0002,84.4713,261.1927,98.892,-7.5729e-06,-1.83e-06,0.0,0 STARLINK-5835,1 55772U 23028AH  23363.49127449 -.00000183  00000-0 -75729-5 0  9997,2 55772  70.0002  84.4713 0002757 261.1927  98.8920 14.98329238 46525,6950.195,96.107,573.976,570.144,0.0
55772.0,STARLINK-5835,PAYLOAD,2023-12-29 13:23:34,14.98330733,0.0002851,70.0,84.3028,268.5383,91.5449,4.4919e-06,-3.9e-07,0.0,0 STARLINK-5835,1 55772U 23028AH  23363.55803298 -.00000039  00000-0  44919-5 0  9993,2 55772  70.0000  84.3028 0002851 268.5383  91.5449 14.98330733 46532,6950.191,96.107,574.037,570.074,0.0
55772.0,STARLINK-5835,PAYLOAD,2023-12-29 14:59:41,14.98333364,0.0002868,69.9999,84.1348,267.2545,92.8285,-4.8422e-06,-1.51e-06,0.0,0 STARLINK-5835,1 55772U 23028AH  23363.62479139 -.00000151  00000-0 -48422-5 0  9993,2 55772  69.9999  84.1348 0002868 267.2545  92.8285 14.98333364 46549,6950.182,96.107,574.041,570.054,0.0
55772.0,STARLINK-5835,PAYLOAD,2023-12-30 11:49:26,14.98328177,0.0002827,70.0002,81.9467,266.2273,93.8563,4.7381e-05,4.72e-06,0.0,0 STARLINK-5835,1 55772U 23028AH  23364.49267274  .00000472  00000-0  47381-4 0  9990,2 55772  70.0002  81.9467 0002827 266.2273  93.8563 14.98328177 46676,6950.199,96.107,574.028,570.099,0.0
55772.0,STARLINK-5835,PAYLOAD,2023-12-30 13:25:34,14.98329269,0.0002792,70.0003,81.7784,265.4437,94.6403,6.0701e-05,6.31e-06,0.0,0 STARLINK-5835,1 55772U 23028AH  23364.55943169  .00000631  00000-0  60701-4 0  9999,2 55772  70.0003  81.7784 0002792 265.4437  94.6403 14.98329269 46687,6950.195,96.107,574.001,570.12,0.0
55772.0,STARLINK-5835,PAYLOAD,2023-12-30 15:01:42,14.98330121,0.0002789,70.0003,81.6102,265.4043,94.6798,6.9166e-05,7.32e-06,0.0,0 STARLINK-5835,1 55772U 23028AH  23364.62619093  .00000732  00000-0  69166-4 0  9999,2 55772  70.0003  81.6102 0002789 265.4043  94.6798 14.98330121 46696,6950.193,96.107,573.996,570.119,0.0
55772.0,STARLINK-5835,PAYLOAD,2023-12-31 11:51:28,14.98328341,0.0002727,70.0005,79.4226,265.8058,94.2789,3.2086e-06,-5.5e-07,0.0,0 STARLINK-5835,1 55772U 23028AH  23365.49407409 -.00000055  00000-0  32086-5 0  9992,2 55772  70.0005  79.4226 0002727 265.8058  94.2789 14.98328341 46824,6950.198,96.107,573.958,570.168,0.0
55772.0,STARLINK-5835,PAYLOAD,2023-12-31 15:03:41,14.98367856,0.0003432,70.0019,79.088,334.0169,26.0817,0.00050809,5.981e-05,0.0,0 STARLINK-5835,1 55772U 23028AH  23365.62756614  .00005981  00000-0  50809-3 0  9995,2 55772  70.0019  79.0880 0003432 334.0169  26.0817 14.98367856 46848,6950.076,96.105,574.326,569.556,0.0
55772.0,STARLINK-5835,PAYLOAD,2024-01-01 11:53:29,14.98321494,0.0002897,70.0006,76.8986,265.1669,94.9159,-0.00011314,-1.442e-05,0.0,0 STARLINK-5835,1 55772U 23028AH  24001.49547494 -.00001442  00000-0 -11314-3 0  9990,2 55772  70.0006  76.8986 0002897 265.1669  94.9159 14.98321494 46974,6950.219,96.108,574.098,570.071,0.0
55772.0,STARLINK-5835,PAYLOAD,2024-01-01 13:29:37,14.98321171,0.0002885,70.0006,76.7303,264.2072,95.8758,-0.00011545,-1.47e-05,0.0,0 STARLINK-5835,1 55772U 23028AH  24001.56223530 -.00001470  00000-0 -11545-3 0  9997,2 55772  70.0006  76.7303 0002885 264.2072  95.8758 14.98321171 46989,6950.22,96.108,574.09,570.08,0.0
55772.0,STARLINK-5835,PAYLOAD,2024-01-01 15:05:45,14.98321907,0.0003086,70.0003,76.5613,272.6967,87.3838,-0.00010933,-1.397e-05,0.0,0 STARLINK-5835,1 55772U 23028AH  24001.62899525 -.00001397  00000-0 -10933-3 0  9995,2 55772  70.0003  76.5613 0003086 272.6967  87.3838 14.98321907 46991,6950.218,96.108,574.228,569.938,0.0
55772.0,STARLINK-5835,PAYLOAD,2024-01-02 03:54:49,14.9832719,0.0003227,69.9995,75.2136,275.0151,85.064,-2.0781e-05,-3.41e-06,0.0,0 STARLINK-5835,1 55772U 23028AH  24002.16307053 -.00000341  00000-0 -20781-4 0  9996,2 55772  69.9995  75.2136 0003227 275.0151  85.0640 14.98327190 47079,6950.202,96.107,574.309,569.824,0.0
55772.0,STARLINK-5835,PAYLOAD,2024-01-02 13:31:37,14.98332219,0.0003191,69.9997,74.2032,275.5261,84.5534,4.1572e-05,4.03e-06,0.0,0 STARLINK-5835,1 55772U 23028AH  24002.56362576  .00000403  00000-0  41572-4 0  9999,2 55772  69.9997  74.2032 0003191 275.5261  84.5534 14.98332219 47133,6950.186,96.107,574.269,569.833,0.0
55772.0,STARLINK-5835,PAYLOAD,2024-01-02 15:07:45,14.98332974,0.0003204,69.9997,74.035,275.5497,84.5297,5.1545e-05,5.22e-06,0.0,0 STARLINK-5835,1 55772U 23028AH  24002.63038486  .00000522  00000-0  51545-4 0  9990,2 55772  69.9997  74.0350 0003204 275.5497  84.5297 14.98332974 47145,6950.184,96.107,574.276,569.822,0.0
55772.0,STARLINK-5835,PAYLOAD,2024-01-03 03:56:50,14.98304244,0.0003389,70.0,72.6886,275.0569,85.0203,0.0002797,3.244e-05,0.0,0 STARLINK-5835,1 55772U 23028AH  24003.16447164  .00003244  00000-0  27970-3 0  9994,2 55772  70.0000  72.6886 0003389 275.0569  85.0203 14.98304244 47221,6950.273,96.109,574.493,569.782,0.0
55772.0,STARLINK-5835,PAYLOAD,2024-01-03 13:33:39,14.98303908,0.0003153,70.0005,71.6788,273.0121,87.0677,0.00032136,3.741e-05,0.0,0 STARLINK-5835,1 55772U 23028AH  24003.56503662  .00003741  00000-0  32136-3 0  9996,2 55772  70.0005  71.6788 0003153 273.0121  87.0677 14.98303908 47286,6950.274,96.109,574.33,569.947,0.0
55772.0,STARLINK-5835,PAYLOAD,2024-01-04 03:58:51,14.98329551,0.0003153,69.9998,70.1632,275.6316,84.4483,4.0959e-05,3.96e-06,0.0,0 STARLINK-5835,1 55772U 23028AH  24004.16586911  .00000396  00000-0  40959-4 0  9997,2 55772  69.9998  70.1632 0003153 275.6316  84.4483 14.98329551 47378,6950.194,96.107,574.251,569.868,0.0
